NORAD_CAT_ID,OBJECT_NAME,OBJECT_TYPE,EPOCH,MEAN_MOTION,ECCENTRICITY,INCLINATION,RA_OF_ASC_NODE,ARG_OF_PERICENTER,MEAN_ANOMALY,BSTAR,MEAN_MOTION_DOT,MEAN_MOTION_DDOT,TLE_LINE0,TLE_LINE1,TLE_LINE2,SEMIMAJOR_AXIS,PERIOD,APOGEE,PERIGEE,DECAYED
53829.0,STARLINK-4759,PAYLOAD,2024-04-15 04:09:37,15.08817916,0.0001483,53.2179,177.4621,91.7113,268.4049,-6.9701e-05,-1.396e-05,0.0,0 STARLINK-4759,1 53829U 22114M   24106.17334654 -.00001396  00000-0 -69701-4 0  9991,2 53829  53.2179 177.4621 0001483  91.7113 268.4049 15.08817916 87590,6917.948,95.439,540.839,538.787,0.0
53829.0,STARLINK-4759,PAYLOAD,2024-04-15 12:06:31,15.08834031,0.0001177,53.2175,175.9718,78.7633,281.3491,7.266e-05,8.69e-06,0.0,0 STARLINK-4759,1 53829U 22114M   24106.50453686  .00000869  00000-0  72660-4 0  9995,2 53829  53.2175 175.9718 0001177  78.7633 281.3491 15.08834031 87646,6917.899,95.438,540.578,538.949,0.0
53829.0,STARLINK-4759,PAYLOAD,2024-04-15 21:38:50,15.08844023,0.000127,53.2178,174.1867,67.2765,292.8361,0.00012665,1.729e-05,0.0,0 STARLINK-4759,1 53829U 22114M   24106.90197077  .00001729  00000-0  12665-3 0  9992,2 53829  53.2178 174.1867 0001270  67.2765 292.8361 15.08844023 87700,6917.868,95.437,540.612,538.855,0.0
53829.0,STARLINK-4759,PAYLOAD,2024-04-16 11:57:17,15.08860188,0.0001387,53.2168,171.5156,90.8111,269.304,0.00067706,0.0001051,0.0,0 STARLINK-4759,1 53829U 22114M   24107.49812409  .00010510  00000-0  67706-3 0  9994,2 53829  53.2168 171.5156 0001387  90.8111 269.3040 15.08860188 87799,6917.819,95.436,540.643,538.724,0.0
53829.0,STARLINK-4759,PAYLOAD,2024-04-17 03:51:09,15.0886097,0.0001499,53.218,168.5409,61.6139,298.5004,0.00033016,4.973e-05,0.0,0 STARLINK-4759,1 53829U 22114M   24108.16052155  .00004973  00000-0  33016-3 0  9996,2 53829  53.2180 168.5409 0001499  61.6139 298.5004 15.08860970 87894,6917.816,95.436,540.718,538.644,0.0
53829.0,STARLINK-4759,PAYLOAD,2024-04-17 10:12:41,15.08852444,0.0001192,53.2184,167.3486,86.3299,273.783,0.0001868,2.687e-05,0.0,0 STARLINK-4759,1 53829U 22114M   24108.42548300  .00002687  00000-0  18680-3 0  9997,2 53829  53.2184 167.3486 0001192  86.3299 273.7830 15.08852444 87935,6917.842,95.437,540.532,538.883,0.0
53829.0,STARLINK-4759,PAYLOAD,2024-04-17 21:20:22,15.08859187,9.14e-05,53.2171,165.2665,100.7586,259.3509,0.00013313,1.833e-05,0.0,0 STARLINK-4759,1 53829U 22114M   24108.88915316  .00001833  00000-0  13313-3 0  9992,2 53829  53.2171 165.2665 0000914 100.7586 259.3509 15.08859187 88540,6917.822,95.436,540.319,539.054,0.0
53829.0,STARLINK-4759,PAYLOAD,2024-04-18 10:03:30,15.08809469,0.000148,53.2172,162.8914,71.5754,288.5399,-0.0007555,-0.00012281,0.0,0 STARLINK-4759,1 53829U 22114M   24109.41910041 -.00012281  00000-0 -75550-3 0  9994,2 53829  53.2172 162.8914 0001480  71.5754 288.5399 15.08809469 88080,6917.974,95.439,540.863,538.815,0.0
53829.0,STARLINK-4759,PAYLOAD,2024-04-19 13:05:03,15.08843763,0.0001666,53.2175,157.8319,100.4612,259.6568,0.0002359,3.469e-05,0.0,0 STARLINK-4759,1 53829U 22114M   24110.54517404  .00003469  00000-0  23590-3 0  9999,2 53829  53.2175 157.8319 0001666 100.4612 259.6568 15.08843763 88258,6917.869,95.437,540.886,538.581,0.0
53829.0,STARLINK-4759,PAYLOAD,2024-04-20 09:45:02,15.08864591,0.0001657,53.217,153.9693,84.8737,275.2444,0.00066939,0.00010389,0.0,0 STARLINK-4759,1 53829U 22114M   24111.40628164  .00010389  00000-0  66939-3 0  9994,2 53829  53.2170 153.9693 0001657  84.8737 275.2444 15.08864591 88381,6917.805,95.436,540.817,538.524,0.0
53829.0,STARLINK-4759,PAYLOAD,2024-04-21 03:14:16,15.08841802,0.0001103,53.2162,150.6983,345.3331,14.7629,-0.00039658,-6.594e-05,0.0,0 STARLINK-4759,1 53829U 22114M   24112.13491820 -.00006594  00000-0 -39658-3 0  9995,2 53829  53.2162 150.6983 0001103 345.3331  14.7629 15.08841802 88492,6917.875,95.437,540.503,538.977,0.0
53829.0,STARLINK-4759,PAYLOAD,2024-04-21 09:35:49,15.08810837,0.0001384,53.2168,149.5087,94.4158,265.6992,-0.0011873,-0.00019119,0.0,0 STARLINK-4759,1 53829U 22114M   24112.39988373 -.00019119  00000-0 -11873-2 0  9992,2 53829  53.2168 149.5087 0001384  94.4158 265.6992 15.08810837 89079,6917.97,95.439,540.792,538.877,0.0
53829.0,STARLINK-4759,PAYLOAD,2024-04-22 09:26:38,15.0882791,0.0001116,53.2162,145.0483,93.9149,266.1971,0.0013964,0.00021998,0.0,0 STARLINK-4759,1 53829U 22114M   24113.39350302  .00021998  00000-0  13964-2 0  9997,2 53829  53.2162 145.0483 0001116  93.9149 266.1971 15.08827910 88680,6917.917,95.438,540.554,539.01,0.0
53829.0,STARLINK-4759,PAYLOAD,2024-04-22 12:37:24,15.08840866,0.0001183,53.216,144.4538,99.2153,260.8973,0.0016598,0.00026227,0.0,0 STARLINK-4759,1 53829U 22114M   24113.52598257  .00026227  00000-0  16598-2 0  9991,2 53829  53.2160 144.4538 0001183  99.2153 260.8973 15.08840866 89241,6917.878,95.437,540.561,538.924,0.0
53829.0,STARLINK-4759,PAYLOAD,2024-04-23 10:52:48,15.08864513,0.0001173,53.215,140.2901,99.6091,260.5033,0.0011207,0.00017605,0.0,0 STARLINK-4759,1 53829U 22114M   24114.45333559  .00017605  00000-0  11207-2 0  9998,2 53829  53.2150 140.2901 0001173  99.6091 260.5033 15.08864513 88846,6917.805,95.436,540.482,538.859,0.0
53829.0,STARLINK-4759,PAYLOAD,2024-04-24 10:43:34,15.08856675,0.0001405,53.2151,135.8292,81.5818,278.5333,0.0002903,4.337e-05,0.0,0 STARLINK-4759,1 53829U 22114M   24115.44692985  .00004337  00000-0  29030-3 0  9991,2 53829  53.2151 135.8292 0001405  81.5818 278.5333 15.08856675 88993,6917.829,95.436,540.666,538.722,0.0
53829.0,STARLINK-4759,PAYLOAD,2024-04-25 01:02:02,15.08851017,0.0001534,53.2147,133.1544,82.654,277.4626,0.00016187,2.29e-05,0.0,0 STARLINK-4759,1 53829U 22114M   24116.04308797  .00002290  00000-0  16187-3 0  9998,2 53829  53.2147 133.1544 0001534  82.6540 277.4626 15.08851017 89085,6917.847,95.437,540.773,538.651,0.0
53829.0,STARLINK-4759,PAYLOAD,2024-04-25 07:23:35,15.08844571,0.0001279,53.215,131.9613,97.8406,262.2731,-3.1478e-05,-7.89e-06,0.0,0 STARLINK-4759,1 53829U 22114M   24116.30804865 -.00000789  00000-0 -31478-4 0  9998,2 53829  53.2150 131.9613 0001279  97.8406 262.2731 15.08844571 89128,6917.866,95.437,540.616,538.847,0.0
53829.0,STARLINK-4759,PAYLOAD,2024-04-26 10:25:08,15.08845768,0.0001397,53.2173,126.9063,91.4144,268.7008,2.3201e-05,8.1e-07,0.0,0 STARLINK-4759,1 53829U 22114M   24117.43412926  .00000081  00000-0  23201-4 0  9994,2 53829  53.2173 126.9063 0001397  91.4144 268.7008 15.08845768 89291,6917.863,95.437,540.694,538.761,0.0
53829.0,STARLINK-4759,PAYLOAD,2024-04-27 10:15:55,15.08842977,0.0001324,53.2164,122.4471,87.3439,272.7705,0.00013504,1.862e-05,0.0,0 STARLINK-4759,1 53829U 22114M   24118.42772778  .00001862  00000-0  13504-3 0  9990,2 53829  53.2164 122.4471 0001324  87.3439 272.7705 15.08842977 89980,6917.871,95.437,540.652,538.82,0.0
53829.0,STARLINK-4759,PAYLOAD,2024-04-28 03:45:11,15.08830806,0.0001298,53.2164,119.1752,85.9799,274.1341,-2.9749e-05,-7.61e-06,0.0,0 STARLINK-4759,1 53829U 22114M   24119.15637970 -.00000761  00000-0 -29749-4 0  9993,2 53829  53.2164 119.1752 0001298  85.9799 274.1341 15.08830806 89551,6917.908,95.438,540.671,538.876,0.0
53829.0,STARLINK-4759,PAYLOAD,2024-04-28 06:55:57,15.08828953,0.0001267,53.2161,118.5801,84.9614,275.1522,-5.3312e-05,-1.136e-05,0.0,0 STARLINK-4759,1 53829U 22114M   24119.28886163 -.00001136  00000-0 -53312-4 0  9997,2 53829  53.2161 118.5801 0001267  84.9614 275.1522 15.08828953 90113,6917.914,95.438,540.656,538.903,0.0
53829.0,STARLINK-4759,PAYLOAD,2024-04-28 16:28:16,15.08831836,0.0001268,53.2165,116.796,84.1465,275.9671,-3.202e-05,-7.97e-06,0.0,0 STARLINK-4759,1 53829U 22114M   24119.68630050 -.00000797  00000-0 -32020-4 0  9998,2 53829  53.2165 116.7960 0001268  84.1465 275.9671 15.08831836 90173,6917.905,95.438,540.648,538.893,0.0
53829.0,STARLINK-4759,PAYLOAD,2024-04-29 05:11:21,15.08835038,0.0001289,53.2165,114.4174,94.2133,265.9007,1.6762e-05,-2.1e-07,0.0,0 STARLINK-4759,1 53829U 22114M   24120.21621879 -.00000021  00000-0  16762-4 0  9992,2 53829  53.2165 114.4174 0001289  94.2133 265.9007 15.08835038 89710,6917.896,95.438,540.652,538.869,0.0
53829.0,STARLINK-4759,PAYLOAD,2024-04-29 06:46:44,15.08838181,0.0001266,53.217,114.1222,93.5468,266.5669,1.876e-05,1.1e-07,0.0,0 STARLINK-4759,1 53829U 22114M   24120.28245706  .00000011  00000-0  18760-4 0  9998,2 53829  53.2170 114.1222 0001266  93.5468 266.5669 15.08838181 90260,6917.886,95.438,540.627,538.875,0.0
53829.0,STARLINK-4759,PAYLOAD,2024-04-29 16:19:02,15.08843792,0.00013,53.2174,112.3378,92.4168,267.6973,3.5512e-05,2.77e-06,0.0,0 STARLINK-4759,1 53829U 22114M   24120.67989315  .00000277  00000-0  35512-4 0  9990,2 53829  53.2174 112.3378 0001300  92.4168 267.6973 15.08843792 89789,6917.869,95.437,540.633,538.834,0.0
53829.0,STARLINK-4759,PAYLOAD,2024-04-30 05:02:08,15.08831284,0.0001375,53.2178,109.9597,97.58,262.5349,0.0001405,1.948e-05,0.0,0 STARLINK-4759,1 53829U 22114M   24121.20982021  .00001948  00000-0  14050-3 0  9996,2 53829  53.2178 109.9597 0001375  97.5800 262.5349 15.08831284 89862,6917.907,95.438,540.723,538.821,0.0
53829.0,STARLINK-4759,PAYLOAD,2024-04-30 06:37:31,15.08832156,0.0001373,53.2178,109.6624,97.1642,262.9506,0.00014634,2.041e-05,0.0,0 STARLINK-4759,1 53829U 22114M   24121.27606002  .00002041  00000-0  14634-3 0  9998,2 53829  53.2178 109.6624 0001373  97.1642 262.9506 15.08832156 90419,6917.904,95.438,540.719,538.82,0.0
53829.0,STARLINK-4759,PAYLOAD,2024-04-30 16:09:50,15.08840286,0.0001375,53.2181,107.8779,93.8523,266.2627,0.00015938,2.25e-05,0.0,0 STARLINK-4759,1 53829U 22114M   24121.67349581  .00002250  00000-0  15938-3 0  9998,2 53829  53.2181 107.8779 0001375  93.8523 266.2627 15.08840286 89936,6917.88,95.438,540.696,538.793,0.0
53829.0,STARLINK-4759,PAYLOAD,2024-05-01 04:52:55,15.08839602,0.00015,53.219,105.5002,96.8943,263.2219,4.5431e-05,4.35e-06,0.0,0 STARLINK-4759,1 53829U 22114M   24122.20342073  .00000435  00000-0  45431-4 0  9992,2 53829  53.2190 105.5002 0001500  96.8943 263.2219 15.08839602 90014,6917.882,95.438,540.784,538.709,0.0
